{"type": "FeatureCollection", "features": [ {"type": "Feature", "properties": {"norad_id": 58662, "name": "TIANMU-1 21", "group": "weather", "lat": 58.26794506303865, "lon": 78.8260814846133, "alt_km": 468.6271724887456, "timestamp": "2025-12-03T15:48:02.748714+00:00", "meta": {"OBJECT_NAME": "TIANMU-1 21", "OBJECT_ID": "2023-208C", "EPOCH": "2025-12-03T07:42:06.694848", "MEAN_MOTION": 15.31229455, "ECCENTRICITY": 0.0005973, "INCLINATION": 97.4377, "RA_OF_ASC_NODE": 90.6837, "ARG_OF_PERICENTER": 299.5412, "MEAN_ANOMALY": 60.5233, "EPHEMERIS_TYPE": 0, "CLASSIFICATION_TYPE": "U", "NORAD_CAT_ID": 58662, "ELEMENT_SET_NO": 999, "REV_AT_EPOCH": 10755, "BSTAR": 0.00049168704, "MEAN_MOTION_DOT": 0.00014774, "MEAN_MOTION_DDOT": 0}, "tle": {"line1": "1 58662U 23208C   25337.32091082  .00014774  00000+0  49169-3 0  9991", "line2": "2 58662  97.4377  90.6837 0005973 299.5412  60.5233 15.31229455107559"}}, "geometry": {"type": "Point", "coordinates": [78.8260814846133, 58.26794506303865]}}, {"type": "Feature", "properties": {"norad_id": 58663, "name": "TIANMU-1 22", "group": "weather", "lat": 69.43264426258699, "lon": -70.84393228120416, "alt_km": 478.5995498591601, "timestamp": "2025-12-03T15:48:02.748723+00:00", "meta": {"OBJECT_NAME": "TIANMU-1 22", "OBJECT_ID": "2023-208D", "EPOCH": "2025-12-03T07:27:45.470880", "MEAN_MOTION": 15.27346878, "ECCENTRICITY": 0.00030737, "INCLINATION": 97.4387, "RA_OF_ASC_NODE": 88.432, "ARG_OF_PERICENTER": 331.518, "MEAN_ANOMALY": 28.589, "EPHEMERIS_TYPE": 0, "CLASSIFICATION_TYPE": "U", "NORAD_CAT_ID": 58663, "ELEMENT_SET_NO": 999, "REV_AT_EPOCH": 10739, "BSTAR": 0.00043827622, "MEAN_MOTION_DOT": 0.00011671, "MEAN_MOTION_DDOT": 0}, "tle": {"line1": "1 58663U 23208D   25337.31094295  .00011671  00000+0  43828-3 0  9999", "line2": "2 58663  97.4387  88.4320 0003073 331.5180  28.5890 15.27346878107390"}}, "geometry": {"type": "Point", "coordinates": [-70.84393228120416, 69.43264426258699]}}, {"type": "Feature", "properties": {"norad_id": 58700, "name": "TIANMU-1 15", "group": "weather", "lat": -26.66929154737479, "lon": 162.9356970420829, "alt_km": 494.17145526008153, "timestamp": "2025-12-03T15:48:02.748732+00:00", "meta": {"OBJECT_NAME": "TIANMU-1 15", "OBJECT_ID": "2024-004A", "EPOCH": "2025-12-03T08:02:30.731424", "MEAN_MOTION": 15.24476891, "ECCENTRICITY": 0.00057879, "INCLINATION": 97.4625, "RA_OF_ASC_NODE": 158.8388, "ARG_OF_PERICENTER": 336.1464, "MEAN_ANOMALY": 23.9504, "EPHEMERIS_TYPE": 0, "CLASSIFICATION_TYPE": "U", "NORAD_CAT_ID": 58700, "ELEMENT_SET_NO": 999, "REV_AT_EPOCH": 10591, "BSTAR": 0.00039069392, "MEAN_MOTION_DOT": 9.534e-05, "MEAN_MOTION_DDOT": 0}, "tle": {"line1": "1 58700U 24004A   25337.33507791  .00009534  00000+0  39069-3 0  9995", "line2": "2 58700  97.4625 158.8388 0005787 336.1464  23.9504 15.24476891105916"}}, "geometry": {"type": "Point", "coordinates": [162.9356970420829, -26.66929154737479]}}, {"type": "Feature", "properties": {"norad_id": 58701, "name": "TIANMU-1 16", "group": "weather", "lat": 62.147186956408234, "lon": 144.20790455524792, "alt_km": 487.06100778734253, "timestamp": "2025-12-03T15:48:02.748741+00:00", "meta": {"OBJECT_NAME": "TIANMU-1 16", "OBJECT_ID": "2024-004B", "EPOCH": "2025-12-02T23:46:09.262272", "MEAN_MOTION": 15.24215807, "ECCENTRICITY": 0.00050547, "INCLINATION": 97.4572, "RA_OF_ASC_NODE": 157.8955, "ARG_OF_PERICENTER": 336.3217, "MEAN_ANOMALY": 23.7787, "EPHEMERIS_TYPE": 0, "CLASSIFICATION_TYPE": "U", "NORAD_CAT_ID": 58701, "ELEMENT_SET_NO": 999, "REV_AT_EPOCH": 10586, "BSTAR": 6.5908855e-05, "MEAN_MOTION_DOT": 1.535e-05, "MEAN_MOTION_DDOT": 0}, "tle": {"line1": "1 58701U 24004B   25336.99038498  .00001535  00000+0  65909-4 0  9996", "line2": "2 58701  97.4572 157.8955 0005054 336.3217  23.7787 15.24215807105865"}}, "geometry": {"type": "Point", "coordinates": [144.20790455524792, 62.147186956408234]}}, {"type": "Feature", "properties": {"norad_id": 58702, "name": "TIANMU-1 17", "group": "weather", "lat": 33.425666098648385, "lon": -16.073435536847466, "alt_km": 493.8566735903869, "timestamp": "2025-12-03T15:48:02.748750+00:00", "meta": {"OBJECT_NAME": "TIANMU-1 17", "OBJECT_ID": "2024-004C", "EPOCH": "2025-12-03T07:17:02.438880", "MEAN_MOTION": 15.24274448, "ECCENTRICITY": 0.00043259, "INCLINATION": 97.4598, "RA_OF_ASC_NODE": 158.6121, "ARG_OF_PERICENTER": 339.4037, "MEAN_ANOMALY": 20.7025, "EPHEMERIS_TYPE": 0, "CLASSIFICATION_TYPE": "U", "NORAD_CAT_ID": 58702, "ELEMENT_SET_NO": 999, "REV_AT_EPOCH": 10590, "BSTAR": 0.00037316144, "MEAN_MOTION_DOT": 9.046e-05, "MEAN_MOTION_DDOT": 0}, "tle": {"line1": "1 58702U 24004C   25337.30350045  .00009046  00000+0  37316-3 0  9993", "line2": "2 58702  97.4598 158.6121 0004325 339.4037  20.7025 15.24274448105905"}}, "geometry": {"type": "Point", "coordinates": [-16.073435536847466, 33.425666098648385]}}, {"type": "Feature", "properties": {"norad_id": 58703, "name": "TIANMU-1 18", "group": "weather", "lat": -57.25964692428415, "lon": -32.602570308611405, "alt_km": 500.6090783280388, "timestamp": "2025-12-03T15:48:02.748761+00:00", "meta": {"OBJECT_NAME": "TIANMU-1 18", "OBJECT_ID": "2024-004D", "EPOCH": "2025-12-03T08:27:27.041184", "MEAN_MOTION": 15.24267672, "ECCENTRICITY": 0.00036858, "INCLINATION": 97.4615, "RA_OF_ASC_NODE": 158.854, "ARG_OF_PERICENTER": 340.7716, "MEAN_ANOMALY": 19.3381, "EPHEMERIS_TYPE": 0, "CLASSIFICATION_TYPE": "U", "NORAD_CAT_ID": 58703, "ELEMENT_SET_NO": 999, "REV_AT_EPOCH": 10591, "BSTAR": 0.00036127005, "MEAN_MOTION_DOT": 8.753e-05, "MEAN_MOTION_DDOT": 0}, "tle": {"line1": "1 58703U 24004D   25337.35239631  .00008753  00000+0  36127-3 0  9999", "line2": "2 58703  97.4615 158.8540 0003685 340.7716  19.3381 15.24267672105911"}}, "geometry": {"type": "Point", "coordinates": [-32.602570308611405, -57.25964692428415]}}, {"type": "Feature", "properties": {"norad_id": 58990, "name": "INSAT-3DS", "group": "weather", "lat": 0.03825831754723835, "lon": 31.825508044825025, "alt_km": 35791.9672174797, "timestamp": "2025-12-03T15:48:02.748771+00:00", "meta": {"OBJECT_NAME": "INSAT-3DS", "OBJECT_ID": "2024-033A", "EPOCH": "2025-12-03T03:52:21.156672", "MEAN_MOTION": 1.00268846, "ECCENTRICITY": 0.00017557, "INCLINATION": 0.0142, "RA_OF_ASC_NODE": 315.2718, "ARG_OF_PERICENTER": 303.9272, "MEAN_ANOMALY": 313.2286, "EPHEMERIS_TYPE": 0, "CLASSIFICATION_TYPE": "U", "NORAD_CAT_ID": 58990, "ELEMENT_SET_NO": 999, "REV_AT_EPOCH": 4510, "BSTAR": 0, "MEAN_MOTION_DOT": 0, "MEAN_MOTION_DDOT": 0}, "tle": {"line1": "1 58990U 24033A   25337.16135598  .00000000  00000+0  00000+0 0  9999", "line2": "2 58990   0.0142 315.2718 0001755 303.9272 313.2286  1.00268846 45101"}}, "geometry": {"type": "Point", "coordinates": [31.825508044825025, 0.03825831754723835]}}, {"type": "Feature", "properties": {"norad_id": 59051, "name": "METEOR-M2 4", "group": "weather", "lat": 38.39715842748447, "lon": 121.65979933176546, "alt_km": 816.8294567074581, "timestamp": "2025-12-03T15:48:02.748781+00:00", "meta": {"OBJECT_NAME": "METEOR-M2 4", "OBJECT_ID": "2024-039A", "EPOCH": "2025-12-03T08:23:15.675936", "MEAN_MOTION": 14.22398931, "ECCENTRICITY": 0.00075403, "INCLINATION": 98.6752, "RA_OF_ASC_NODE": 294.4062, "ARG_OF_PERICENTER": 24.5928, "MEAN_ANOMALY": 335.5608, "EPHEMERIS_TYPE": 0, "CLASSIFICATION_TYPE": "U", "NORAD_CAT_ID": 59051, "ELEMENT_SET_NO": 999, "REV_AT_EPOCH": 9142, "BSTAR": 5.0509119e-05, "MEAN_MOTION_DOT": 6.9e-07, "MEAN_MOTION_DDOT": 0}, "tle": {"line1": "1 59051U 24039A   25337.34948699  .00000069  00000+0  50509-4 0  9997", "line2": "2 59051  98.6752 294.4062 0007540  24.5928 335.5608 14.22398931 91420"}}, "geometry": {"type": "Point", "coordinates": [121.65979933176546, 38.39715842748447]}}, {"type": "Feature", "properties": {"norad_id": 60133, "name": "GOES 19", "group": "weather", "lat": 0.010481246784756293, "lon": -125.46184688315424, "alt_km": 35783.83959786344, "timestamp": "2025-12-03T15:48:02.748792+00:00", "meta": {"OBJECT_NAME": "GOES 19", "OBJECT_ID": "2024-119A", "EPOCH": "2025-12-03T06:32:58.267104", "MEAN_MOTION": 1.00270953, "ECCENTRICITY": 0.00013126, "INCLINATION": 0.015, "RA_OF_ASC_NODE": 141.1383, "ARG_OF_PERICENTER": 156.6473, "MEAN_ANOMALY": 157.6433, "EPHEMERIS_TYPE": 0, "CLASSIFICATION_TYPE": "U", "NORAD_CAT_ID": 60133, "ELEMENT_SET_NO": 999, "REV_AT_EPOCH": 500, "BSTAR": 0, "MEAN_MOTION_DOT": -2.3e-06, "MEAN_MOTION_DDOT": 0}, "tle": {"line1": "1 60133U 24119A   25337.27289661 -.00000230  00000+0  00000+0 0  9995", "line2": "2 60133   0.0150 141.1383 0001312 156.6473 157.6433  1.00270953  5002"}}, "geometry": {"type": "Point", "coordinates": [-125.46184688315424, 0.010481246784756293]}}, {"type": "Feature", "properties": {"norad_id": 65815, "name": "FENGYUN 3H", "group": "weather", "lat": 75.72028283782342, "lon": 134.21472661016995, "alt_km": 818.0957008138303, "timestamp": "2025-12-03T15:48:02.748801+00:00", "meta": {"OBJECT_NAME": "FENGYUN 3H", "OBJECT_ID": "2025-219A", "EPOCH": "2025-12-03T06:52:08.606208", "MEAN_MOTION": 14.1990031, "ECCENTRICITY": 6.403e-05, "INCLINATION": 98.657, "RA_OF_ASC_NODE": 277.0825, "ARG_OF_PERICENTER": 70.9457, "MEAN_ANOMALY": 289.1789, "EPHEMERIS_TYPE": 0, "CLASSIFICATION_TYPE": "U", "NORAD_CAT_ID": 65815, "ELEMENT_SET_NO": 999, "REV_AT_EPOCH": 958, "BSTAR": 9.2938014e-05, "MEAN_MOTION_DOT": 1.54e-06, "MEAN_MOTION_DDOT": 0}, "tle": {"line1": "1 65815U 25219A   25337.28621072  .00000154  00000+0  92938-4 0  9996", "line2": "2 65815  98.6570 277.0825 0000640  70.9457 289.1789 14.19900310  9589"}}, "geometry": {"type": "Point", "coordinates": [134.21472661016995, 75.72028283782342]}}]}